[
    {
        "Altitude(m)": 612502.222122173,
        "Argument of Periapsis(deg)": 0.0,
        "Eccentricity": 0.0,
        "Inclination(deg)": 60.0,
        "Latitude(deg)": -28.136062168957935,
        "Longitude(deg)": 2.1483034056806067,
        "Mean Anomaly(deg)": -32.727299999999985,
        "RAAN(deg)": 120.0,
        "Satellite Name": "Test1 548",
        "Satellite Number": 548,
        "Semi-Major Axis(m)": 6980739.136638005,
        "Time(s)": 0
    },
    {
        "Altitude(m)": 612308.6694839738,
        "Argument of Periapsis(deg)": 0.00010418945913296404,
        "Eccentricity": 0.0,
        "Inclination(deg)": 60.0,
        "Latitude(deg)": -27.623116851043893,
        "Longitude(deg)": 2.5017766810835993,
        "Mean Anomaly(deg)": -32.10719385453813,
        "RAAN(deg)": 119.99957995086024,
        "Satellite Name": "Test1 548",
        "Satellite Number": 548,
        "Semi-Major Axis(m)": 6980739.136638005,
        "Time(s)": 10
    }
]